NORAD_CAT_ID,OBJECT_NAME,OBJECT_TYPE,EPOCH,MEAN_MOTION,ECCENTRICITY,INCLINATION,RA_OF_ASC_NODE,ARG_OF_PERICENTER,MEAN_ANOMALY,BSTAR,MEAN_MOTION_DOT,MEAN_MOTION_DDOT,TLE_LINE0,TLE_LINE1,TLE_LINE2,SEMIMAJOR_AXIS,PERIOD,APOGEE,PERIGEE,DECAYED
53738.0,STARLINK-4662,PAYLOAD,2024-08-07 12:47:39,15.08842488,0.0001454,53.2174,343.8312,103.2008,256.9147,0.00022216,3.25e-05,0.0,0 STARLINK-4662,1 53738U 22107AQ  24220.53309274  .00003250  00000-0  22216-3 0  9997,2 53738  53.2174 343.8312 0001454 103.2008 256.9147 15.08842488107013,6917.873,95.437,540.744,538.732,0.0
53738.0,STARLINK-4662,PAYLOAD,2024-08-07 15:58:25,15.08855851,0.000125,53.2165,343.2427,98.7945,261.3189,0.00052361,8.059e-05,0.0,0 STARLINK-4662,1 53738U 22107AQ  24220.66556856  .00008059  00000-0  52361-3 0  9997,2 53738  53.2165 343.2427 0001250  98.7945 261.3189 15.08855851106402,6917.832,95.437,540.562,538.832,0.0
53738.0,STARLINK-4662,PAYLOAD,2024-08-08 14:13:49,15.08850039,0.0001572,53.2174,339.079,81.1049,279.0122,0.00029903,4.476e-05,0.0,0 STARLINK-4662,1 53738U 22107AQ  24221.59293222  .00004476  00000-0  29903-3 0  9990,2 53738  53.2174 339.0790 0001572  81.1049 279.0122 15.08850039107177,6917.85,95.437,540.802,538.627,0.0
53738.0,STARLINK-4662,PAYLOAD,2024-08-09 12:29:12,15.08850194,0.0001848,53.2177,334.9128,78.9919,281.1281,0.00011066,1.474e-05,0.0,0 STARLINK-4662,1 53738U 22107AQ  24222.52028925  .00001474  00000-0  11066-3 0  9996,2 53738  53.2177 334.9128 0001848  78.9919 281.1281 15.08850194106682,6917.849,95.437,540.993,538.436,0.0
53738.0,STARLINK-4662,PAYLOAD,2024-08-09 14:04:36,15.08852275,0.000164,53.2171,334.6141,86.7401,273.3779,0.00017844,2.554e-05,0.0,0 STARLINK-4662,1 53738U 22107AQ  24222.58652829  .00002554  00000-0  17844-3 0  9998,2 53738  53.2171 334.6141 0001640  86.7401 273.3779 15.08852275107320,6917.843,95.437,540.842,538.573,0.0
53738.0,STARLINK-4662,PAYLOAD,2024-08-10 12:20:00,15.08842327,0.0001642,53.2182,330.4561,68.1417,291.975,7.4444e-05,8.97e-06,0.0,0 STARLINK-4662,1 53738U 22107AQ  24223.51389411  .00000897  00000-0  74444-4 0  9994,2 53738  53.2182 330.4561 0001642  68.1417 291.9750 15.08842327106832,6917.873,95.437,540.874,538.602,0.0
53738.0,STARLINK-4662,PAYLOAD,2024-08-11 13:46:10,15.0884577,0.0001493,53.2177,325.6986,89.0807,271.0356,0.00027919,4.159e-05,0.0,0 STARLINK-4662,1 53738U 22107AQ  24224.57373493  .00004159  00000-0  27919-3 0  9993,2 53738  53.2177 325.6986 0001493  89.0807 271.0356 15.08845770106995,6917.863,95.437,540.761,538.695,0.0
53738.0,STARLINK-4662,PAYLOAD,2024-08-12 05:40:02,15.0883171,0.0002073,53.2194,322.7258,101.4029,258.7196,1.9589e-05,2.3e-07,0.0,0 STARLINK-4662,1 53738U 22107AQ  24225.23614333  .00000023  00000-0  19589-4 0  9999,2 53738  53.2194 322.7258 0002073 101.4029 258.7196 15.08831710107099,6917.906,95.438,541.205,538.337,0.0
53738.0,STARLINK-4662,PAYLOAD,2024-08-12 10:26:12,15.08836002,0.0001625,53.2169,321.8269,81.8166,278.301,8.7369e-05,1.103e-05,0.0,0 STARLINK-4662,1 53738U 22107AQ  24225.43486385  .00001103  00000-0  87369-4 0  9996,2 53738  53.2169 321.8269 0001625  81.8166 278.3010 15.08836002107753,6917.893,95.438,540.882,538.633,0.0
53738.0,STARLINK-4662,PAYLOAD,2024-08-12 16:47:43,15.08869908,0.0001551,53.2171,320.6407,84.3416,275.7753,0.00057192,8.833e-05,0.0,0 STARLINK-4662,1 53738U 22107AQ  24225.69980559  .00008833  00000-0  57192-3 0  9993,2 53738  53.2171 320.6407 0001551  84.3416 275.7753 15.08869908107162,6917.789,95.436,540.727,538.581,0.0
53738.0,STARLINK-4662,PAYLOAD,2024-08-13 05:30:50,15.08810376,0.0001558,53.2157,318.262,96.3259,263.7911,-0.00048433,-7.982e-05,0.0,0 STARLINK-4662,1 53738U 22107AQ  24226.22975438 -.00007982  00000-0 -48433-3 0  9997,2 53738  53.2157 318.2620 0001558  96.3259 263.7911 15.08810376107248,6917.971,95.439,540.914,538.758,0.0
53738.0,STARLINK-4662,PAYLOAD,2024-08-13 10:17:03,15.0876199,0.0001114,53.2162,317.3722,81.323,278.7888,-0.0010304,-0.00016614,0.0,0 STARLINK-4662,1 53738U 22107AQ  24226.42850882 -.00016614  00000-0 -10304-2 0  9991,2 53738  53.2162 317.3722 0001114  81.3230 278.7888 15.08761990107277,6918.119,95.442,540.755,539.213,0.0
53738.0,STARLINK-4662,PAYLOAD,2024-08-13 16:38:33,15.08826981,0.000103,53.2156,316.1775,114.5654,245.5446,0.00010691,1.414e-05,0.0,0 STARLINK-4662,1 53738U 22107AQ  24226.69343825  .00001414  00000-0  10691-3 0  9994,2 53738  53.2156 316.1775 0001030 114.5654 245.5446 15.08826981107310,6917.92,95.438,540.498,539.073,0.0
53738.0,STARLINK-4662,PAYLOAD,2024-08-14 13:18:32,15.08867447,0.0001353,53.216,312.3132,81.33,278.7845,0.00073355,0.00011414,0.0,0 STARLINK-4662,1 53738U 22107AQ  24227.55454541  .00011414  00000-0  73355-3 0  9995,2 53738  53.2160 312.3132 0001353  81.3300 278.7845 15.08867447107444,6917.796,95.436,540.597,538.726,0.0
53738.0,STARLINK-4662,PAYLOAD,2024-08-14 22:50:52,15.08847285,0.0002142,53.2166,310.5274,75.4421,284.6808,0.0003701,5.608e-05,0.0,0 STARLINK-4662,1 53738U 22107AQ  24227.95199385  .00005608  00000-0  37010-3 0  9997,2 53738  53.2166 310.5274 0002142  75.4421 284.6808 15.08847285108132,6917.858,95.437,541.205,538.241,0.0
53738.0,STARLINK-4662,PAYLOAD,2024-08-15 11:33:57,15.08830899,0.0001055,53.2154,308.1496,73.2082,286.9026,5.0409e-05,5.14e-06,0.0,0 STARLINK-4662,1 53738U 22107AQ  24228.48191787  .00000514  00000-0  50409-4 0  9993,2 53738  53.2154 308.1496 0001055  73.2082 286.9026 15.08830899108218,6917.908,95.438,540.503,539.043,0.0
53738.0,STARLINK-4662,PAYLOAD,2024-08-15 22:41:38,15.08847764,0.0001345,53.2151,306.0696,66.9763,293.1371,5.383e-06,-2.02e-06,0.0,0 STARLINK-4662,1 53738U 22107AQ  24228.94558984 -.00000202  00000-0  53830-5 0  9997,2 53738  53.2151 306.0696 0001345  66.9763 293.1371 15.08847764108280,6917.857,95.437,540.652,538.791,0.0
53738.0,STARLINK-4662,PAYLOAD,2024-08-16 09:49:20,15.08853696,0.0001687,53.2151,303.9879,68.1683,291.9488,0.00011999,1.623e-05,0.0,0 STARLINK-4662,1 53738U 22107AQ  24229.40926661  .00001623  00000-0  11999-3 0  9995,2 53738  53.2151 303.9879 0001687  68.1683 291.9488 15.08853696108357,6917.839,95.437,540.871,538.536,0.0
53738.0,STARLINK-4662,PAYLOAD,2024-08-17 08:04:44,15.08844183,0.0001714,53.2149,299.8243,64.3747,295.7423,0.00021165,3.082e-05,0.0,0 STARLINK-4662,1 53738U 22107AQ  24230.33663009  .00003082  00000-0  21165-3 0  9990,2 53738  53.2149 299.8243 0001714  64.3747 295.7423 15.08844183107869,6917.868,95.437,540.918,538.547,0.0
53738.0,STARLINK-4662,PAYLOAD,2024-08-18 11:06:17,15.08849125,0.0001665,53.216,294.767,93.6898,266.4285,0.00018454,2.651e-05,0.0,0 STARLINK-4662,1 53738U 22107AQ  24231.46270287  .00002651  00000-0  18454-3 0  9995,2 53738  53.2160 294.7670 0001665  93.6898 266.4285 15.08849125108039,6917.852,95.437,540.869,538.566,0.0
53738.0,STARLINK-4662,PAYLOAD,2024-08-19 04:35:32,15.08836818,0.0001838,53.2166,291.4958,106.128,253.9915,6.3629e-05,7.25e-06,0.0,0 STARLINK-4662,1 53738U 22107AQ  24232.19134840  .00000725  00000-0  63629-4 0  9995,2 53738  53.2166 291.4958 0001838 106.1280 253.9915 15.08836818108143,6917.89,95.438,541.027,538.484,0.0
53738.0,STARLINK-4662,PAYLOAD,2024-08-19 10:57:05,15.08835583,0.0001708,53.2167,290.3104,102.6225,257.4958,1.1864e-05,-9.9e-07,0.0,0 STARLINK-4662,1 53738U 22107AQ  24232.45630966 -.00000099  00000-0  11864-4 0  9993,2 53738  53.2167 290.3104 0001708 102.6225 257.4958 15.08835583108819,6917.894,95.438,540.94,538.577,0.0
53738.0,STARLINK-4662,PAYLOAD,2024-08-20 07:37:05,15.08843217,0.0001471,53.2152,286.4428,87.0174,273.0987,3.6397e-05,2.91e-06,0.0,0 STARLINK-4662,1 53738U 22107AQ  24233.31742696  .00000291  00000-0  36397-4 0  9994,2 53738  53.2152 286.4428 0001471  87.0174 273.0987 15.08843217108318,6917.871,95.437,540.753,538.718,0.0
53738.0,STARLINK-4662,PAYLOAD,2024-08-21 10:38:39,15.08838793,0.0001446,53.2148,281.3875,87.2971,272.8186,9.6343e-05,1.246e-05,0.0,0 STARLINK-4662,1 53738U 22107AQ  24234.44351035  .00001246  00000-0  96343-4 0  9990,2 53738  53.2148 281.3875 0001446  87.2971 272.8186 15.08838793108481,6917.884,95.438,540.749,538.749,0.0
